CTC1_L_00393016-03
1 10062U 22890JJ  26075.70034722  .00000000  00000+0  00000-0 0  9994
2 10062  90.0000 180.0000 0000000   0.0000   0.0000 13.03091871    13
CTC1_L_00393016-04
1 10063U 22848DU  26075.70034722  .00000000  00000+0  00000-0 0  9998
2 10063  90.0000 180.0000 0000000   0.0000  90.0000 13.03091871    13
CTC1_L_00393017-01
1 10064U 26827PM  26075.70034722  .00000000  00000+0  00000-0 0  9990
2 10064  90.0000 192.0000 0000000   0.0000 192.0000 13.03091871    10
CTC1_L_00393017-02
1 10065U 22793VD  26075.70034722  .00000000  00000+0  00000-0 0  9999
2 10065  90.0000 192.0000 0000000   0.0000 282.0000 13.03091871    11
CTC1_L_00393017-03
1 10066U 25194JS  26075.70034722  .00000000  00000+0  00000-0 0  9998
2 10066  90.0000 192.0000 0000000   0.0000  12.0000 13.03091871    13
CTC1_L_00393017-04
1 10067U 23668NW  26075.70034722  .00000000  00000+0  00000-0 0  9993
2 10067  90.0000 192.0000 0000000   0.0000 102.0000 13.03091871    14
CTC1_L_00393018-01
1 10068U 22446DD  26075.70034722  .00000000  00000+0  00000-0 0  9997
2 10068  90.0000 204.0000 0000000   0.0000 204.0000 13.03091871    12
CTC1_L_00393018-02
1 10069U 25702IJ  26075.70034722  .00000000  00000+0  00000-0 0  9996
2 10069  90.0000 204.0000 0000000   0.0000 294.0000 13.03091871    12
CTC1_L_00393018-03
1 10070U 23018QS  26075.70034722  .00000000  00000+0  00000-0 0  9996
2 10070  90.0000 204.0000 0000000   0.0000  24.0000 13.03091871    15
CTC1_L_00393018-04
1 10071U 23877SL  26075.70034722  .00000000  00000+0  00000-0 0  9990
2 10071  90.0000 204.0000 0000000   0.0000 114.0000 13.03091871    16
CTC1_L_00393019-01
1 10072U 26015QO  26075.70034722  .00000000  00000+0  00000-0 0  9998
2 10072  90.0000 216.0000 0000000   0.0000 216.0000 13.03091871    13
CTC1_L_00393019-02
1 10073U 23358YW  26075.70034722  .00000000  00000+0  00000-0 0  9996
2 10073  90.0000 216.0000 0000000   0.0000 306.0000 13.03091871    14
CTC1_L_00393019-03
1 10074U 24541GN  26075.70034722  .00000000  00000+0  00000-0 0  9992
2 10074  90.0000 216.0000 0000000   0.0000  36.0000 13.03091871    15
CTC1_L_00393019-04
1 10075U 23173YK  26075.70034722  .00000000  00000+0  00000-0 0  9993
2 10075  90.0000 216.0000 0000000   0.0000 126.0000 13.03091871    16
CTC1_L_00393020-01
1 10076U 23369SC  26075.70034722  .00000000  00000+0  00000-0 0  9991
2 10076  90.0000 228.0000 0000000   0.0000 228.0000 13.03091871    13
CTC1_L_00393020-02
1 10077U 24009SI  26075.70034722  .00000000  00000+0  00000-0 0  9994
2 10077  90.0000 228.0000 0000000   0.0000 318.0000 13.03091871    14
CTC1_L_00393020-03
1 10078U 24455BU  26075.70034722  .00000000  00000+0  00000-0 0  9990
2 10078  90.0000 228.0000 0000000   0.0000  48.0000 13.03091871    15
CTC1_L_00393020-04
1 10079U 24730UV  26075.70034722  .00000000  00000+0  00000-0 0  9997
2 10079  90.0000 228.0000 0000000   0.0000 138.0000 13.03091871    16
CTC1_L_00393021-01
1 10080U 23233UJ  26075.70034722  .00000000  00000+0  00000-0 0  9996
2 10080  90.0000 240.0000 0000000   0.0000 240.0000 13.03091871    16
CTC1_L_00393021-02
1 10081U 24607JE  26075.70034722  .00000000  00000+0  00000-0 0  9993
2 10081  90.0000 240.0000 0000000   0.0000 330.0000 13.03091871    17
CTC1_L_00393021-03
1 10082U 23388JA  26075.70034722  .00000000  00000+0  00000-0 0  9999
2 10082  90.0000 240.0000 0000000   0.0000  60.0000 13.03091871    18
CTC1_L_00393021-04
1 10083U 23173TK  26075.70034722  .00000000  00000+0  00000-0 0  9992
2 10083  90.0000 240.0000 0000000   0.0000 150.0000 13.03091871    19
CTC1_L_00393022-01
1 10084U 24220NJ  26075.70034722  .00000000  00000+0  00000-0 0  9997
2 10084  90.0000 252.0000 0000000   0.0000 252.0000 13.03091871    16
CTC1_L_00393022-02
1 10085U 24886I   26075.70034722  .00000000  00000+0  00000-0 0  9996
2 10085  90.0000 252.0000 0000000   0.0000 342.0000 13.03091871    17
CTC1_L_00393022-03
1 10086U 23069CB  26075.70034722  .00000000  00000+0  00000-0 0  9999
2 10086  90.0000 252.0000 0000000   0.0000  72.0000 13.03091871    18
CTC1_L_00393022-04
1 10087U 24855ZU  26075.70034722  .00000000  00000+0  00000-0 0  9994
2 10087  90.0000 252.0000 0000000   0.0000 162.0000 13.03091871    19
CTC1_L_00393023-01
1 10088U 24235GH  26075.70034722  .00000000  00000+0  00000-0 0  9997
2 10088  90.0000 264.0000 0000000   0.0000 264.0000 13.03091871    16
CTC1_L_00393023-02
1 10089U 24945YZ  26075.70034722  .00000000  00000+0  00000-0 0  9996
2 10089  90.0000 264.0000 0000000   0.0000 354.0000 13.03091871    17
CTC1_L_00393023-03
1 10090U 26045OO  26075.70034722  .00000000  00000+0  00000-0 0  9991
2 10090  90.0000 264.0000 0000000   0.0000  84.0000 13.03091871    19
CTC1_L_00393023-04
1 10091U 23595ZW  26075.70034722  .00000000  00000+0  00000-0 0  9999
2 10091  90.0000 264.0000 0000000   0.0000 174.0000 13.03091871    10
CTC1_L_00393024-01
1 10092U 26379GZ  26075.70034722  .00000000  00000+0  00000-0 0  9993
2 10092  90.0000 276.0000 0000000   0.0000 276.0000 13.03091871    17
CTC1_L_00393024-02
1 10093U 24179KQ  26075.70034722  .00000000  00000+0  00000-0 0  9990
2 10093  90.0000 276.0000 0000000   0.0000   6.0000 13.03091871    19
CTC1_L_00393024-03
1 10094U 22662UT  26075.70034722  .00000000  00000+0  00000-0 0  9996
2 10094  90.0000 276.0000 0000000   0.0000  96.0000 13.03091871    19
CTC1_L_00393024-04
1 10095U 23849BB  26075.70034722  .00000000  00000+0  00000-0 0  9995
2 10095  90.0000 276.0000 0000000   0.0000 186.0000 13.03091871    10
CTC1_L_00393025-01
1 10096U 26615SK  26075.70034722  .00000000  00000+0  00000-0 0  9990
2 10096  90.0000 288.0000 0000000   0.0000 288.0000 13.03091871    17
CTC1_L_00393025-02
1 10097U 23021PV  26075.70034722  .00000000  00000+0  00000-0 0  9999
2 10097  90.0000 288.0000 0000000   0.0000  18.0000 13.03091871    19
CTC1_L_00393025-03
1 10098U 22193XT  26075.70034722  .00000000  00000+0  00000-0 0  9999
2 10098  90.0000 288.0000 0000000   0.0000 108.0000 13.03091871    10
CTC1_L_00393025-04
1 10099U 24164IF  26075.70034722  .00000000  00000+0  00000-0 0  9990
2 10099  90.0000 288.0000 0000000   0.0000 198.0000 13.03091871    10
CTC1_L_00393026-01
1 10100U 25895HW  26075.70034722  .00000000  00000+0  00000-0 0  9995
2 10100  90.0000 300.0000 0000000   0.0000 300.0000 13.03091871    13
CTC1_L_00393026-02
1 10101U 25860ZM  26075.70034722  .00000000  00000+0  00000-0 0  9998
2 10101  90.0000 300.0000 0000000   0.0000  30.0000 13.03091871    14
CTC1_L_00393026-03
1 10102U 24801WH  26075.70034722  .00000000  00000+0  00000-0 0  9993
2 10102  90.0000 300.0000 0000000   0.0000 120.0000 13.03091871    15
CTC1_L_00393026-04
1 10103U 25787YE  26075.70034722  .00000000  00000+0  00000-0 0  9998
2 10103  90.0000 300.0000 0000000   0.0000 210.0000 13.03091871    16
CTC1_L_00393027-01
1 10104U 25495XT  26075.70034722  .00000000  00000+0  00000-0 0  9995
2 10104  90.0000 312.0000 0000000   0.0000 312.0000 13.03091871    13
CTC1_L_00393027-02
1 10105U 25185VL  26075.70034722  .00000000  00000+0  00000-0 0  9992
2 10105  90.0000 312.0000 0000000   0.0000  42.0000 13.03091871    14
CTC1_L_00393027-03
1 10106U 26605I   26075.70034722  .00000000  00000+0  00000-0 0  9991
2 10106  90.0000 312.0000 0000000   0.0000 132.0000 13.03091871    15
CTC1_L_00393027-04
1 10107U 26514SP  26075.70034722  .00000000  00000+0  00000-0 0  9991
2 10107  90.0000 312.0000 0000000   0.0000 222.0000 13.03091871    16
CTC1_L_00393028-01
1 10108U 26607BX  26075.70034722  .00000000  00000+0  00000-0 0  9995
2 10108  90.0000 324.0000 0000000   0.0000 324.0000 13.03091871    13
CTC1_L_00393028-02
1 10109U 24507KV  26075.70034722  .00000000  00000+0  00000-0 0  9993
2 10109  90.0000 324.0000 0000000   0.0000  54.0000 13.03091871    14
CTC1_L_00393028-03
1 10110U 25892VN  26075.70034722  .00000000  00000+0  00000-0 0  9993
2 10110  90.0000 324.0000 0000000   0.0000 144.0000 13.03091871    16
CTC1_L_00393028-04
1 10111U 23633WA  26075.70034722  .00000000  00000+0  00000-0 0  9995
2 10111  90.0000 324.0000 0000000   0.0000 234.0000 13.03091871    17
CTC1_L_00393029-01
1 10112U 23534QA  26075.70034722  .00000000  00000+0  00000-0 0  9996
2 10112  90.0000 336.0000 0000000   0.0000 336.0000 13.03091871    14
CTC1_L_00393029-02
1 10113U 25719YJ  26075.70034722  .00000000  00000+0  00000-0 0  9994
2 10113  90.0000 336.0000 0000000   0.0000  66.0000 13.03091871    15
CTC1_L_00393029-03
1 10114U 22829CS  26075.70034722  .00000000  00000+0  00000-0 0  9994
2 10114  90.0000 336.0000 0000000   0.0000 156.0000 13.03091871    16
CTC1_L_00393029-04
1 10115U 26764OL  26075.70034722  .00000000  00000+0  00000-0 0  9997
2 10115  90.0000 336.0000 0000000   0.0000 246.0000 13.03091871    17
CTC1_L_00393030-01
1 10116U 24939KO  26075.70034722  .00000000  00000+0  00000-0 0  9990
2 10116  90.0000 348.0000 0000000   0.0000 348.0000 13.03091871    14
CTC1_L_00393030-02
1 10117U 22940FZ  26075.70034722  .00000000  00000+0  00000-0 0  9991
2 10117  90.0000 348.0000 0000000   0.0000  78.0000 13.03091871    15
CTC1_L_00393030-03
1 10118U 23501UC  26075.70034722  .00000000  00000+0  00000-0 0  9996
2 10118  90.0000 348.0000 0000000   0.0000 168.0000 13.03091871    16
CTC1_L_00393030-04
1 10119U 24326JO  26075.70034722  .00000000  00000+0  00000-0 0  9993
2 10119  90.0000 348.0000 0000000   0.0000 258.0000 13.03091871    17
